H1 CPF  1  MCC 2022  4  7 12  5971 larets
H2  0304206 5557    27944 2022 04 06 23 45 00 2022 04 11 23 57 00   180 1 1  0 0 0
H9
10 0 59679 62460.000000 0      -233348.506     -1264078.452     -6956795.089
10 0 59679 62640.000000 0     -1119705.099      -233372.810     -6982725.901
10 0 59679 62820.000000 0     -1938296.446       828114.407     -6755488.641
10 0 59679 63000.000000 0     -2659379.084      1880005.523     -6283316.456
10 0 59679 63180.000000 0     -3257729.871      2881506.075     -5583196.651
10 0 59679 63360.000000 0     -3713519.274      3792952.894     -4680318.727
10 0 59679 63540.000000 0     -4012980.971      4577372.297     -3607240.580
10 0 59679 63720.000000 0     -4148843.652      5201986.674     -2402781.177
10 0 59679 63900.000000 0     -4120506.683      5639606.423     -1110670.482
10 0 59679 64080.000000 0     -3933950.088      5869845.780       222012.598
10 0 59679 64260.000000 0     -3601369.075      5880090.362      1546564.895
10 0 59679 64440.000000 0     -3140546.258      5666160.031      2814474.297
10 0 59679 64620.000000 0     -2573982.894      5232620.848      3979244.362
10 0 59679 64800.000000 0     -1927840.223      4592728.691      4998134.059
10 0 59679 64980.000000 0     -1230749.565      3768015.022      5833746.427
10 0 59679 65160.000000 0      -512547.862      2787532.083      6455404.531
10 0 59679 65340.000000 0       196998.317      1686795.254      6840263.424
10 0 59679 65520.000000 0       869425.711       506472.873      6974132.341
10 0 59679 65700.000000 0      1478719.007      -709129.996      6851987.047
10 0 59679 65880.000000 0      2002324.213     -1913741.121      6478165.140
10 0 59679 66060.000000 0      2421997.688     -3060894.937      5866236.283
10 0 59679 66240.000000 0      2724461.745     -4105750.408      5038543.276
10 0 59679 66420.000000 0      2901840.233     -5006884.180      4025417.453
10 0 59679 66600.000000 0      2951858.776     -5727988.059      2864085.698
10 0 59679 66780.000000 0      2877796.296     -6239393.803      1597294.931
10 0 59679 66960.000000 0      2688185.108     -6519343.980       271703.111
10 0 59679 67140.000000 0      2396278.554     -6554944.334     -1063893.359
10 0 59679 67320.000000 0      2019309.566     -6342745.757     -2360427.427
10 0 59679 67500.000000 0      1577577.404     -5888917.252     -3570428.013
10 0 59679 67680.000000 0      1093417.272     -5209006.062     -4649795.300
10 0 59679 67860.000000 0       590118.947     -4327312.398     -5559401.534
10 0 59679 68040.000000 0        90847.674     -3275931.351     -6266465.020
10 0 59679 68220.000000 0      -382383.164     -2093513.983     -6745658.493
10 0 59679 68400.000000 0      -809643.862      -823809.488     -6979930.476
10 0 59679 68580.000000 0     -1173891.258       485952.428     -6961036.100
10 0 59679 68760.000000 0     -1461619.733      1786785.783     -6689776.585
10 0 59679 68940.000000 0     -1663343.546      3029728.621     -6175954.394
10 0 59679 69120.000000 0     -1773899.688      4167637.971     -5438051.040
10 0 59679 69300.000000 0     -1792564.122      5156953.178     -4502623.875
10 0 59679 69480.000000 0     -1722977.244      5959370.329     -3403422.634
10 0 59679 69660.000000 0     -1572876.821      6543359.509     -2180236.646
10 0 59679 69840.000000 0     -1353646.705      6885460.598      -877502.861
10 0 59679 70020.000000 0     -1079698.820      6971291.964       457289.174
10 0 59679 70200.000000 0      -767713.476      6796215.918      1775340.355
10 0 59679 70380.000000 0      -435774.397      6365604.919      3028368.633
10 0 59679 70560.000000 0      -102444.677      5694685.257      4170418.402
10 0 59679 70740.000000 0       214166.298      4807983.677      5159578.790
10 0 59679 70920.000000 0       497301.598      3738387.335      5959545.624
10 0 59679 71100.000000 0       732375.325      2525877.196      6540947.366
10 0 59679 71280.000000 0       907669.707      1215996.103      6882411.237
10 0 59679 71460.000000 0      1014882.935      -141889.362      6971331.870
10 0 59679 71640.000000 0      1049506.761     -1496462.089      6804328.279
10 0 59679 71820.000000 0      1011018.556     -2796405.468      6387384.385
10 0 59679 72000.000000 0       902879.471     -3992370.506      5735659.285
10 0 59679 72180.000000 0       732337.599     -5038883.812      4872963.419
10 0 59679 72360.000000 0       510048.296     -5896124.473      3830920.935
10 0 59679 72540.000000 0       249522.214     -6531512.418      2647830.314
10 0 59679 72720.000000 0       -33578.373     -6921022.828      1367245.288
10 0 59679 72900.000000 0      -322259.872     -7050156.462        36334.233
10 0 59679 73080.000000 0      -599092.354     -6914514.655     -1295922.450
10 0 59679 73260.000000 0      -847127.501     -6519931.939     -2580608.707
10 0 59679 73440.000000 0     -1050788.320     -5882174.031     -3770723.786
10 0 59679 73620.000000 0     -1196686.638     -5026227.089     -4822930.943
10 0 59679 73800.000000 0     -1274325.428     -3985221.512     -5699124.659
10 0 59679 73980.000000 0     -1276653.951     -2799064.396     -6367759.610
10 0 59679 74160.000000 0     -1200454.306     -1512852.309     -6804910.885
10 0 59679 74340.000000 0     -1046548.813      -175135.904     -6995044.071
10 0 59679 74520.000000 0      -819824.870      1163894.856     -6931492.789
10 0 59679 74700.000000 0      -529076.572      2454247.347     -6616648.126
10 0 59679 74880.000000 0      -186671.857      3647937.813     -6061867.342
10 0 59679 75060.000000 0       191948.552      4700736.893     -5287103.002
10 0 59679 75240.000000 0       588926.236      5573796.033     -4320248.659
10 0 59679 75420.000000 0       984771.678      6235103.730     -3196208.423
10 0 59679 75600.000000 0      1359255.640      6660711.448     -1955700.884
10 0 59679 75780.000000 0      1692368.526      6835671.929      -643825.491
10 0 59679 75960.000000 0      1965303.912      6754634.740       691568.757
10 0 59679 76140.000000 0      2161413.882      6422055.173      2001647.531
10 0 59679 76320.000000 0      2267085.976      5852003.302      3238410.170
10 0 59679 76500.000000 0      2272497.285      5067579.843      4356487.954
10 0 59679 76680.000000 0      2172202.988      4099961.428      5314846.679
10 0 59679 76860.000000 0      1965525.620      2987116.360      6078310.651
10 0 59679 77040.000000 0      1656731.528      1772274.346      6618845.293
10 0 59679 77220.000000 0      1254987.567       502215.489      6916573.683
10 0 59679 77400.000000 0       774097.009      -774552.620      6960488.954
10 0 59679 77580.000000 0       232025.611     -2009657.116      6748858.496
10 0 59679 77760.000000 0      -349771.763     -3156709.442      6289305.438
10 0 59679 77940.000000 0      -947200.065     -4173072.676      5598554.134
10 0 59679 78120.000000 0     -1534513.675     -5021478.017      4701852.153
10 0 59679 78300.000000 0     -2085421.431     -5671447.659      3632087.303
10 0 59679 78480.000000 0     -2574263.225     -6100462.378      2428593.435
10 0 59679 78660.000000 0     -2977196.743     -6294799.792      1135684.167
10 0 59679 78840.000000 0     -3273332.755     -6250004.493      -199023.542
10 0 59679 79020.000000 0     -3445759.057     -5970964.210     -1526426.939
10 0 59679 79200.000000 0     -3482398.613     -5471584.651     -2797813.060
10 0 59679 79380.000000 0     -3376656.247     -4774081.182     -3966702.071
10 0 59679 79560.000000 0     -3127820.035     -3907933.707     -4990569.288
10 0 59679 79740.000000 0     -2741205.484     -2908575.679     -5832372.210
10 0 59679 79920.000000 0     -2228047.368     -1815891.843     -6461835.111
10 0 59679 80100.000000 0     -1605148.982      -672597.857     -6856460.255
10 0 59679 80280.000000 0      -894309.502       477428.410     -7002244.846
10 0 59679 80460.000000 0      -121558.946      1590798.275     -6894105.482
10 0 59679 80640.000000 0       683777.015      2626201.032     -6536020.278
10 0 59679 80820.000000 0      1490159.111      3545893.666     -5940892.078
10 0 59679 81000.000000 0      2265037.645      4317052.712     -5130125.074
10 0 59679 81180.000000 0      2976136.671      4912944.948     -4132921.135
10 0 59679 81360.000000 0      3592779.017      5313882.209     -2985301.270
10 0 59679 81540.000000 0      4087201.709      5507916.773     -1728865.739
10 0 59679 81720.000000 0      4435802.888      5491238.990      -409321.487
10 0 59679 81900.000000 0      4620254.914      5268250.854       925176.453
10 0 59679 82080.000000 0      4628421.981      4851299.251      2225803.817
10 0 59679 82260.000000 0      4455033.480      4260083.973      3444888.470
10 0 59679 82440.000000 0      4102073.004      3520759.883      4537702.950
10 0 59679 82620.000000 0      3578858.334      2664778.329      5464135.569
10 0 59679 82800.000000 0      2901811.130      1727532.420      6190178.485
10 0 59679 82980.000000 0      2093925.996       746871.160      6689167.603
10 0 59679 83160.000000 0      1183972.888      -238445.055      6942742.653
10 0 59679 83340.000000 0       205459.196     -1190282.869      6941510.394
10 0 59679 83520.000000 0      -804614.002     -2072622.739      6685392.480
10 0 59679 83700.000000 0     -1807159.219     -2852937.080      6183642.103
10 0 59679 83880.000000 0     -2762519.308     -3503408.364      5454534.221
10 0 59679 84060.000000 0     -3632053.951     -4001953.997      4524742.501
10 0 59679 84240.000000 0     -4379742.263     -4333016.097      3428390.267
10 0 59679 84420.000000 0     -4973714.843     -4488075.160      2205802.031
10 0 59679 84600.000000 0     -5387649.475     -4465867.095       902001.414
10 0 59679 84780.000000 0     -5601959.117     -4272284.775      -434995.680
10 0 59679 84960.000000 0     -5604704.579     -3919966.150     -1756016.232
10 0 59679 85140.000000 0     -5392179.066     -3427589.680     -3012610.132
10 0 59679 85320.000000 0     -4969132.668     -2818918.533     -4158876.646
99
